{"type": "FeatureCollection", "features": [ {"type": "Feature", "properties": {"norad_id": 36402, "name": "COSMOS 2460 (732)", "group": "gnss", "lat": 65.1920135308569, "lon": 40.540601035575925, "alt_km": 19128.917315558814, "timestamp": "2025-12-20T11:30:28.619443+00:00", "meta": {"OBJECT_NAME": "COSMOS 2460 (732)", "OBJECT_ID": "2010-007C", "EPOCH": "2025-12-19T13:42:43.098624", "MEAN_MOTION": 2.131063, "ECCENTRICITY": 0.0002543, "INCLINATION": 65.526, "RA_OF_ASC_NODE": 320.5423, "ARG_OF_PERICENTER": 279.9868, "MEAN_ANOMALY": 189.087, "EPHEMERIS_TYPE": 0, "CLASSIFICATION_TYPE": "U", "NORAD_CAT_ID": 36402, "ELEMENT_SET_NO": 999, "REV_AT_EPOCH": 12290, "BSTAR": 0, "MEAN_MOTION_DOT": -5.7e-07, "MEAN_MOTION_DDOT": 0}, "tle": {"line1": "1 36402U 10007C   25353.57133216 -.00000057  00000+0  00000+0 0  9990", "line2": "2 36402  65.5260 320.5423 0002543 279.9868 189.0870  2.13106300122906"}}, "geometry": {"type": "Point", "coordinates": [40.540601035575925, 65.1920135308569]}}, {"type": "Feature", "properties": {"norad_id": 36585, "name": "GPS BIIF-1  (PRN 25)", "group": "gnss", "lat": 8.803978006372903, "lon": -137.8313072345645, "alt_km": 19983.06935599382, "timestamp": "2025-12-20T11:30:28.619454+00:00", "meta": {"OBJECT_NAME": "GPS BIIF-1  (PRN 25)", "OBJECT_ID": "2010-022A", "EPOCH": "2025-12-20T02:58:58.243008", "MEAN_MOTION": 2.00553637, "ECCENTRICITY": 0.0126416, "INCLINATION": 54.299, "RA_OF_ASC_NODE": 215.776, "ARG_OF_PERICENTER": 65.1663, "MEAN_ANOMALY": 50.4936, "EPHEMERIS_TYPE": 0, "CLASSIFICATION_TYPE": "U", "NORAD_CAT_ID": 36585, "ELEMENT_SET_NO": 999, "REV_AT_EPOCH": 11400, "BSTAR": 0, "MEAN_MOTION_DOT": 8e-07, "MEAN_MOTION_DDOT": 0}, "tle": {"line1": "1 36585U 10022A   25354.12428522  .00000080  00000+0  00000+0 0  9993", "line2": "2 36585  54.2990 215.7760 0126416  65.1663  50.4936  2.00553637114007"}}, "geometry": {"type": "Point", "coordinates": [-137.8313072345645, 8.803978006372903]}}, {"type": "Feature", "properties": {"norad_id": 36828, "name": "BEIDOU-2 IGSO-1 (C06)", "group": "gnss", "lat": -20.236959322712156, "lon": -0.03191302349034982, "alt_km": 35576.30112234407, "timestamp": "2025-12-20T11:30:28.619466+00:00", "meta": {"OBJECT_NAME": "BEIDOU-2 IGSO-1 (C06)", "OBJECT_ID": "2010-036A", "EPOCH": "2025-12-14T21:38:21.623424", "MEAN_MOTION": 1.00275796, "ECCENTRICITY": 0.00512569, "INCLINATION": 54.2866, "RA_OF_ASC_NODE": 164.6279, "ARG_OF_PERICENTER": 215.8888, "MEAN_ANOMALY": 135.7931, "EPHEMERIS_TYPE": 0, "CLASSIFICATION_TYPE": "U", "NORAD_CAT_ID": 36828, "ELEMENT_SET_NO": 999, "REV_AT_EPOCH": 5624, "BSTAR": 0, "MEAN_MOTION_DOT": -2.4e-07, "MEAN_MOTION_DDOT": 0}, "tle": {"line1": "1 36828U 10036A   25348.90163916 -.00000024  00000+0  00000+0 0  9999", "line2": "2 36828  54.2866 164.6279 0051256 215.8888 135.7931  1.00275796 56247"}}, "geometry": {"type": "Point", "coordinates": [-0.03191302349034982, -20.236959322712156]}}, {"type": "Feature", "properties": {"norad_id": 37210, "name": "BEIDOU-2 G4 (C04)", "group": "gnss", "lat": -0.41487748942542685, "lon": 62.06291242070036, "alt_km": 35827.431210954885, "timestamp": "2025-12-20T11:30:28.619480+00:00", "meta": {"OBJECT_NAME": "BEIDOU-2 G4 (C04)", "OBJECT_ID": "2010-057A", "EPOCH": "2025-12-20T03:43:10.763616", "MEAN_MOTION": 1.00272028, "ECCENTRICITY": 0.0010428, "INCLINATION": 3.2021, "RA_OF_ASC_NODE": 69.9113, "ARG_OF_PERICENTER": 192.7452, "MEAN_ANOMALY": 42.2144, "EPHEMERIS_TYPE": 0, "CLASSIFICATION_TYPE": "U", "NORAD_CAT_ID": 37210, "ELEMENT_SET_NO": 999, "REV_AT_EPOCH": 5549, "BSTAR": 0, "MEAN_MOTION_DOT": -9e-07, "MEAN_MOTION_DDOT": 0}, "tle": {"line1": "1 37210U 10057A   25354.15498569 -.00000090  00000+0  00000+0 0  9990", "line2": "2 37210   3.2021  69.9113 0010428 192.7452  42.2144  1.00272028 55499"}}, "geometry": {"type": "Point", "coordinates": [62.06291242070036, -0.41487748942542685]}}, {"type": "Feature", "properties": {"norad_id": 37256, "name": "BEIDOU-2 IGSO-2 (C07)", "group": "gnss", "lat": 47.64964366413943, "lon": 11.898336824783089, "alt_km": 35881.37072897753, "timestamp": "2025-12-20T11:30:28.619491+00:00", "meta": {"OBJECT_NAME": "BEIDOU-2 IGSO-2 (C07)", "OBJECT_ID": "2010-068A", "EPOCH": "2025-12-19T17:11:58.178112", "MEAN_MOTION": 1.00284373, "ECCENTRICITY": 0.00484108, "INCLINATION": 47.8732, "RA_OF_ASC_NODE": 274.0632, "ARG_OF_PERICENTER": 216.3467, "MEAN_ANOMALY": 324.0365, "EPHEMERIS_TYPE": 0, "CLASSIFICATION_TYPE": "U", "NORAD_CAT_ID": 37256, "ELEMENT_SET_NO": 999, "REV_AT_EPOCH": 5499, "BSTAR": 0, "MEAN_MOTION_DOT": -1.93e-06, "MEAN_MOTION_DDOT": 0}, "tle": {"line1": "1 37256U 10068A   25353.71664558 -.00000193  00000+0  00000+0 0  9990", "line2": "2 37256  47.8732 274.0632 0048410 216.3467 324.0365  1.00284373 54994"}}, "geometry": {"type": "Point", "coordinates": [11.898336824783089, 47.64964366413943]}}, {"type": "Feature", "properties": {"norad_id": 37384, "name": "BEIDOU-2 IGSO-3 (C08)", "group": "gnss", "lat": -28.266740563124245, "lon": 25.38685145539263, "alt_km": 35904.148434776725, "timestamp": "2025-12-20T11:30:28.619503+00:00", "meta": {"OBJECT_NAME": "BEIDOU-2 IGSO-3 (C08)", "OBJECT_ID": "2011-013A", "EPOCH": "2025-12-19T15:24:21.799872", "MEAN_MOTION": 1.00269211, "ECCENTRICITY": 0.0035344, "INCLINATION": 62.1523, "RA_OF_ASC_NODE": 41.8505, "ARG_OF_PERICENTER": 187.8464, "MEAN_ANOMALY": 197.2749, "EPHEMERIS_TYPE": 0, "CLASSIFICATION_TYPE": "U", "NORAD_CAT_ID": 37384, "ELEMENT_SET_NO": 999, "REV_AT_EPOCH": 5386, "BSTAR": 0, "MEAN_MOTION_DOT": -1.68e-06, "MEAN_MOTION_DDOT": 0}, "tle": {"line1": "1 37384U 11013A   25353.64191898 -.00000168  00000+0  00000+0 0  9999", "line2": "2 37384  62.1523  41.8505 0035344 187.8464 197.2749  1.00269211 53869"}}, "geometry": {"type": "Point", "coordinates": [25.38685145539263, -28.266740563124245]}}, {"type": "Feature", "properties": {"norad_id": 37605, "name": "GSAT-8 (GAGAN/PRN 127)", "group": "gnss", "lat": -1.3502965113855387, "lon": -42.93254842693633, "alt_km": 35761.19723739868, "timestamp": "2025-12-20T11:30:28.619515+00:00", "meta": {"OBJECT_NAME": "GSAT-8 (GAGAN/PRN 127)", "OBJECT_ID": "2011-022A", "EPOCH": "2025-12-20T03:13:13.633248", "MEAN_MOTION": 1.00270781, "ECCENTRICITY": 0.0008846, "INCLINATION": 1.6677, "RA_OF_ASC_NODE": 84.1202, "ARG_OF_PERICENTER": 185.3843, "MEAN_ANOMALY": 282.8543, "EPHEMERIS_TYPE": 0, "CLASSIFICATION_TYPE": "U", "NORAD_CAT_ID": 37605, "ELEMENT_SET_NO": 999, "REV_AT_EPOCH": 5142, "BSTAR": 0, "MEAN_MOTION_DOT": 1.07e-06, "MEAN_MOTION_DDOT": 0}, "tle": {"line1": "1 37605U 11022A   25354.13418557  .00000107  00000+0  00000+0 0  9996", "line2": "2 37605   1.6677  84.1202 0008846 185.3843 282.8543  1.00270781 51425"}}, "geometry": {"type": "Point", "coordinates": [-42.93254842693633, -1.3502965113855387]}}, {"type": "Feature", "properties": {"norad_id": 37763, "name": "BEIDOU-2 IGSO-4 (C09)", "group": "gnss", "lat": -6.656117218235496, "lon": -7.962667604895198, "alt_km": 35314.145880947915, "timestamp": "2025-12-20T11:30:28.619527+00:00", "meta": {"OBJECT_NAME": "BEIDOU-2 IGSO-4 (C09)", "OBJECT_ID": "2011-038A", "EPOCH": "2025-12-17T23:29:21.564384", "MEAN_MOTION": 1.00281312, "ECCENTRICITY": 0.01493143, "INCLINATION": 54.5836, "RA_OF_ASC_NODE": 167.2999, "ARG_OF_PERICENTER": 230.2426, "MEAN_ANOMALY": 136.1954, "EPHEMERIS_TYPE": 0, "CLASSIFICATION_TYPE": "U", "NORAD_CAT_ID": 37763, "ELEMENT_SET_NO": 999, "REV_AT_EPOCH": 5283, "BSTAR": 0, "MEAN_MOTION_DOT": 6.5e-07, "MEAN_MOTION_DDOT": 0}, "tle": {"line1": "1 37763U 11038A   25351.97872181  .00000065  00000+0  00000+0 0  9997", "line2": "2 37763  54.5836 167.2999 0149314 230.2426 136.1954  1.00281312 52838"}}, "geometry": {"type": "Point", "coordinates": [-7.962667604895198, -6.656117218235496]}}, {"type": "Feature", "properties": {"norad_id": 37846, "name": "GSAT0101 (GALILEO-PFM)", "group": "gnss", "lat": -23.879707927181695, "lon": -30.087509099257908, "alt_km": 23215.98449617798, "timestamp": "2025-12-20T11:30:28.619541+00:00", "meta": {"OBJECT_NAME": "GSAT0101 (GALILEO-PFM)", "OBJECT_ID": "2011-060A", "EPOCH": "2025-12-18T18:24:05.988672", "MEAN_MOTION": 1.70475824, "ECCENTRICITY": 0.000318, "INCLINATION": 57.0514, "RA_OF_ASC_NODE": 346.6564, "ARG_OF_PERICENTER": 319.1021, "MEAN_ANOMALY": 40.8874, "EPHEMERIS_TYPE": 0, "CLASSIFICATION_TYPE": "U", "NORAD_CAT_ID": 37846, "ELEMENT_SET_NO": 999, "REV_AT_EPOCH": 8804, "BSTAR": 0, "MEAN_MOTION_DOT": -7.5e-07, "MEAN_MOTION_DDOT": 0}, "tle": {"line1": "1 37846U 11060A   25352.76673598 -.00000075  00000+0  00000+0 0  9995", "line2": "2 37846  57.0514 346.6564 0003180 319.1021  40.8874  1.70475824 88044"}}, "geometry": {"type": "Point", "coordinates": [-30.087509099257908, -23.879707927181695]}}, {"type": "Feature", "properties": {"norad_id": 37847, "name": "GSAT0102 (GALILEO-FM2)", "group": "gnss", "lat": 13.921819840348995, "lon": -4.14596894171522, "alt_km": 23213.990484948506, "timestamp": "2025-12-20T11:30:28.619553+00:00", "meta": {"OBJECT_NAME": "GSAT0102 (GALILEO-FM2)", "OBJECT_ID": "2011-060B", "EPOCH": "2025-12-18T09:18:10.933920", "MEAN_MOTION": 1.7047603, "ECCENTRICITY": 0.0005099, "INCLINATION": 57.0522, "RA_OF_ASC_NODE": 346.6671, "ARG_OF_PERICENTER": 311.9548, "MEAN_ANOMALY": 220.8374, "EPHEMERIS_TYPE": 0, "CLASSIFICATION_TYPE": "U", "NORAD_CAT_ID": 37847, "ELEMENT_SET_NO": 999, "REV_AT_EPOCH": 8804, "BSTAR": 0, "MEAN_MOTION_DOT": -7.6e-07, "MEAN_MOTION_DDOT": 0}, "tle": {"line1": "1 37847U 11060B   25352.38762655 -.00000076  00000+0  00000+0 0  9998", "line2": "2 37847  57.0522 346.6671 0005099 311.9548 220.8374  1.70476030 88043"}}, "geometry": {"type": "Point", "coordinates": [-4.14596894171522, 13.921819840348995]}}]}